CCSDS_OMM_VERS,COMMENT,CREATION_DATE,ORIGINATOR,OBJECT_NAME,OBJECT_ID,CENTER_NAME,REF_FRAME,TIME_SYSTEM,MEAN_ELEMENT_THEORY,EPOCH,MEAN_MOTION,ECCENTRICITY,INCLINATION,RA_OF_ASC_NODE,ARG_OF_PERICENTER,MEAN_ANOMALY,EPHEMERIS_TYPE,CLASSIFICATION_TYPE,NORAD_CAT_ID,ELEMENT_SET_NO,REV_AT_EPOCH,BSTAR,MEAN_MOTION_DOT,MEAN_MOTION_DDOT,SEMIMAJOR_AXIS,PERIOD,APOAPSIS,PERIAPSIS,OBJECT_TYPE,RCS_SIZE,COUNTRY_CODE,LAUNCH_DATE,SITE,DECAY_DATE,FILE,GP_ID,TLE_LINE0,TLE_LINE1,TLE_LINE2
"2.0","GENERATED VIA SPACE-TRACK.ORG API","2020-02-15T06:50:20","18 SPCS","COSMOS 2498","2014-028C","EARTH","TEME","UTC","SGP4","2020-02-15T03:47:35.163168","12.42884501","0.00216770","82.4475","118.3149","76.0053","284.3445","0","U","39763","999","26012","0.00019848000000","0.00000037","0.0000000000000","7872.536","115.859","1511.466","1477.335","PAYLOAD","LARGE","CIS","2014-05-23","PKMTR","","2701817","148788510","0 COSMOS 2498","1 39763U 14028C   20046.15804587  .00000037  00000-0  19848-3 0  9996","2 39763  82.4475 118.3149 0021677  76.0053 284.3445 12.42884501260127"
"2.0","GENERATED VIA SPACE-TRACK.ORG API","2020-02-15T01:27:12","18 SPCS","COSMOS 1732","1986-015A","EARTH","TEME","UTC","SGP4","2020-02-14T18:36:51.452064","12.40983824","0.00260470","73.6111","166.8740","140.4366","219.8584","0","U","16593","999","54069","0.00012377000000","0.00000000","0.0000000000000","7880.572","116.036","1522.963","1481.910","PAYLOAD","LARGE","CIS","1986-02-11","PKMTR","","2701596","148767825","0 COSMOS 1732","1 16593U 86015A   20045.77559551 -.00000000 +00000-0 +12377-3 0  9993","2 16593 073.6111 166.8740 0026047 140.4366 219.8584 12.40983824540692"
"2.0","GENERATED VIA SPACE-TRACK.ORG API","2020-02-15T01:27:12","18 SPCS","COSMOS 2498","2014-028C","EARTH","TEME","UTC","SGP4","2020-02-14T16:12:05.450112","12.42884408","0.00216950","82.4475","118.6174","77.0443","283.3063","0","U","39763","999","26006","0.00016116000000","0.00000032","0.0000000000000","7872.536","115.859","1511.480","1477.322","PAYLOAD","LARGE","CIS","2014-05-23","PKMTR","","2701596","148778932","0 COSMOS 2498","1 39763U 14028C   20045.67506308 +.00000032 +00000-0 +16116-3 0  9992","2 39763 082.4475 118.6174 0021695 077.0443 283.3063 12.42884408260066"
"2.0","GENERATED VIA SPACE-TRACK.ORG API","2020-02-14T17:48:30","18 SPCS","COSMOS 1732","1986-015A","EARTH","TEME","UTC","SGP4","2020-02-14T10:52:33.618432","12.40983795","0.00260560","73.6111","167.3060","140.9030","219.3903","0","U","16593","999","54065","0.00007753100000","-0.00000007","0.0000000000000","7880.572","116.036","1522.971","1481.903","PAYLOAD","LARGE","CIS","1986-02-11","PKMTR","","2701222","148722441","0 COSMOS 1732","1 16593U 86015A   20045.45316688 -.00000007 +00000-0 +77531-4 0  9991","2 16593 073.6111 167.3060 0026056 140.9030 219.3903 12.40983795540659"
"2.0","GENERATED VIA SPACE-TRACK.ORG API","2020-02-14T17:48:30","18 SPCS","COSMOS 2498","2014-028C","EARTH","TEME","UTC","SGP4","2020-02-14T10:24:20.585376","12.42884374","0.00217080","82.4476","118.7688","77.5675","282.7831","0","U","39763","999","26003","0.00015326000000","0.00000031","0.0000000000000","7872.536","115.859","1511.491","1477.311","PAYLOAD","LARGE","CIS","2014-05-23","PKMTR","","2701222","148733573","0 COSMOS 2498","1 39763U 14028C   20045.43357159 +.00000031 +00000-0 +15326-3 0  9995","2 39763 082.4476 118.7688 0021708 077.5675 282.7831 12.42884374260030"
"2.0","GENERATED VIA SPACE-TRACK.ORG API","2020-02-14T01:36:21","18 SPCS","COSMOS 1732","1986-015A","EARTH","TEME","UTC","SGP4","2020-02-13T19:23:57.948576","12.40983796","0.00260700","73.6109","168.1700","141.8359","218.4537","0","U","16593","999","54057","0.00010755000000","-0.00000003","0.0000000000000","7880.572","116.036","1522.982","1481.892","PAYLOAD","LARGE","CIS","1986-02-11","PKMTR","","2700649","148689544","0 COSMOS 1732","1 16593U 86015A   20044.80830959 -.00000003 +00000-0 +10755-3 0  9991","2 16593 073.6109 168.1700 0026070 141.8359 218.4537 12.40983796540571"
"2.0","GENERATED VIA SPACE-TRACK.ORG API","2020-02-14T00:10:22","18 SPCS","COSMOS 2498","2014-028C","EARTH","TEME","UTC","SGP4","2020-02-13T18:57:01.013184","12.42884177","0.00217150","82.4476","119.1723","78.6475","281.7052","0","U","39763","999","25995","0.00004336000000","0.00000016","0.0000000000000","7872.537","115.859","1511.497","1477.307","PAYLOAD","LARGE","CIS","2014-05-23","PKMTR","","2700490","148681893","0 COSMOS 2498","1 39763U 14028C   20044.78959506  .00000016  00000-0  43360-4 0  9999","2 39763  82.4476 119.1723 0021715  78.6475 281.7052 12.42884177259957"
"2.0","GENERATED VIA SPACE-TRACK.ORG API","2020-02-13T16:26:02","18 SPCS","COSMOS 1732","1986-015A","EARTH","TEME","UTC","SGP4","2020-02-13T11:39:40.112352","12.40983791","0.00260800","73.6109","168.6020","142.2998","217.9879","0","U","16593","999","54053","0.00009533500000","-0.00000004","0.0000000000000","7880.572","116.036","1522.990","1481.884","PAYLOAD","LARGE","CIS","1986-02-11","PKMTR","","2700234","148660948","0 COSMOS 1732","1 16593U 86015A   20044.48588093 -.00000004 +00000-0 +95335-4 0  9993","2 16593 073.6109 168.6020 0026080 142.2998 217.9879 12.40983791540530"
"2.0","GENERATED VIA SPACE-TRACK.ORG API","2020-02-13T16:26:02","18 SPCS","COSMOS 2498","2014-028C","EARTH","TEME","UTC","SGP4","2020-02-13T11:13:21.190368","12.42884097","0.00217180","82.4478","119.3740","79.3128","281.0397","0","U","39763","999","25991","-0.00000160600000","0.00000010","0.0000000000000","7872.537","115.859","1511.500","1477.305","PAYLOAD","LARGE","CIS","2014-05-23","PKMTR","","2700234","148672056","0 COSMOS 2498","1 39763U 14028C   20044.46760637 +.00000010 +00000-0 -16060-5 0  9992","2 39763 082.4478 119.3740 0021718 079.3128 281.0397 12.42884097259918"
"2.0","GENERATED VIA SPACE-TRACK.ORG API","2020-02-13T13:30:18","18 SPCS","COSMOS 1732","1986-015A","EARTH","TEME","UTC","SGP4","2020-02-13T09:43:35.653728","12.40983793","0.00260830","73.6109","168.7100","142.4126","217.8747","0","U","16593","999","54077","0.00009070100000","-0.00000005","0.0000000000000","7880.572","116.036","1522.992","1481.882","PAYLOAD","LARGE","CIS","1986-02-11","PKMTR","","2699880","148647861","0 COSMOS 1732","1 16593U 86015A   20044.40527377 -.00000005  00000-0  90701-4 0  9996","2 16593  73.6109 168.7100 0026083 142.4126 217.8747 12.40983793540779"
"2.0","GENERATED VIA SPACE-TRACK.ORG API","2020-02-13T02:10:40","18 SPCS","COSMOS 2498","2014-028C","EARTH","TEME","UTC","SGP4","2020-02-12T17:50:06.597888","12.42884067","0.00217280","82.4479","119.8278","80.8513","279.5028","0","U","39763","999","25982","-0.00002361900000","0.00000007","0.0000000000000","7872.537","115.859","1511.508","1477.297","PAYLOAD","LARGE","CIS","2014-05-23","PKMTR","","2699474","148633686","0 COSMOS 2498","1 39763U 14028C   20043.74313192 +.00000007 +00000-0 -23619-4 0  9995","2 39763 082.4479 119.8278 0021728 080.8513 279.5028 12.42884067259826"
"2.0","GENERATED VIA SPACE-TRACK.ORG API","2020-02-13T02:10:40","18 SPCS","COSMOS 1732","1986-015A","EARTH","TEME","UTC","SGP4","2020-02-12T14:22:51.057984","12.40983806","0.00260990","73.6107","169.7900","143.5849","216.6976","0","U","16593","999","54042","0.00009377800000","-0.00000004","0.0000000000000","7880.572","116.036","1523.004","1481.869","PAYLOAD","LARGE","CIS","1986-02-11","PKMTR","","2699474","148622579","0 COSMOS 1732","1 16593U 86015A   20043.59920206 -.00000004 +00000-0 +93778-4 0  9999","2 16593 073.6107 169.7900 0026099 143.5849 216.6976 12.40983806540425"
"2.0","GENERATED VIA SPACE-TRACK.ORG API","2020-02-12T17:52:07","18 SPCS","COSMOS 1732","1986-015A","EARTH","TEME","UTC","SGP4","2020-02-12T12:26:46.598496","12.40983805","0.00260990","73.6107","169.8980","143.6984","216.5837","0","U","16593","999","54041","0.00008237100000","-0.00000006","0.0000000000000","7880.572","116.036","1523.004","1481.869","PAYLOAD","LARGE","CIS","1986-02-11","PKMTR","","2699177","148596659","0 COSMOS 1732","1 16593U 86015A   20043.51859489 -.00000006 +00000-0 +82371-4 0  9994","2 16593 073.6107 169.8980 0026099 143.6984 216.5837 12.40983805540418"
"2.0","GENERATED VIA SPACE-TRACK.ORG API","2020-02-12T17:52:07","18 SPCS","COSMOS 2498","2014-028C","EARTH","TEME","UTC","SGP4","2020-02-12T12:02:21.723648","12.42884042","0.00217320","82.4481","119.9794","81.3435","279.0104","0","U","39763","999","25979","-0.00003776500000","0.00000005","0.0000000000000","7872.538","115.859","1511.511","1477.294","PAYLOAD","LARGE","CIS","2014-05-23","PKMTR","","2699177","148607766","0 COSMOS 2498","1 39763U 14028C   20043.50164032 +.00000005 +00000-0 -37765-4 0  9991","2 39763 082.4481 119.9794 0021732 081.3435 279.0104 12.42884042259796"
"2.0","GENERATED VIA SPACE-TRACK.ORG API","2020-02-12T02:55:10","18 SPCS","COSMOS 1732","1986-015A","EARTH","TEME","UTC","SGP4","2020-02-11T19:02:06.464832","12.40983787","0.00261170","73.6106","170.8700","144.7396","215.5382","0","U","16593","999","54032","0.00001530000000","-0.00000015","0.0000000000000","7880.572","116.036","1523.019","1481.855","PAYLOAD","LARGE","CIS","1986-02-11","PKMTR","","2698852","148569552","0 COSMOS 1732","1 16593U 86015A   20042.79313038 -.00000015 +00000-0 +15300-4 0  9996","2 16593 073.6106 170.8700 0026117 144.7396 215.5382 12.40983787540322"
"2.0","GENERATED VIA SPACE-TRACK.ORG API","2020-02-12T02:55:10","18 SPCS","COSMOS 2498","2014-028C","EARTH","TEME","UTC","SGP4","2020-02-11T16:43:12.198144","12.42883958","0.00218920","82.4483","120.4839","83.1166","277.2403","0","U","39763","999","25969","-0.00009219500000","-0.00000003","0.0000000000000","7872.538","115.859","1511.637","1477.168","PAYLOAD","LARGE","CIS","2014-05-23","PKMTR","","2698852","148580659","0 COSMOS 2498","1 39763U 14028C   20042.69666896 -.00000003 +00000-0 -92195-4 0  9992","2 39763 082.4483 120.4839 0021892 083.1166 277.2403 12.42883958259699"
